start=new Date('2022-03-30T00:00:00.000Z').valueOf();
sats=[{"SEMIMAJOR_AXIS":"6925.432","ARG_OF_PERICENTER":"53.7605","TLE_LINE2":"2 47660  53.0542 289.4954 0001981  53.7605  85.3224 15.06372685  3606","ELEMENT_SET_NO":"999","OBJECT_ID":"2021-012AS","REV_AT_EPOCH":"360","REF_FRAME":"TEME","PERIAPSIS":"545.925","EPOCH":"2022-03-29T22:00:00.999936","TLE_LINE1":"1 47660U 21012AS  22088.91667824  .00026868  00000-0  18171-2 0  9992","MEAN_MOTION_DDOT":"0.0000000000000","BSTAR":"0.00181710000000","MEAN_MOTION_DOT":"0.00026868","TIME_SYSTEM":"UTC","NORAD_CAT_ID":"47660","APOAPSIS":"548.669","EPHEMERIS_TYPE":"0","COUNTRY_CODE":"US","OBJECT_NAME":"STARLINK-2044","OBJECT_TYPE":"PAYLOAD","FILE":"3379484","MEAN_ELEMENT_THEORY":"SGP4","MEAN_ANOMALY":"85.3224","PERIOD":"95.594","MEAN_MOTION":"15.06372685","LAUNCH_DATE":"2021-02-16","DECAY_DATE":null,"INCLINATION":"53.0542","ECCENTRICITY":"0.00019810","GP_ID":"200019286","RA_OF_ASC_NODE":"289.4954","RCS_SIZE":"LARGE","SITE":"AFETR","CLASSIFICATION_TYPE":"U","CENTER_NAME":"EARTH"},{"MEAN_MOTION_DOT":"0.00000244","BSTAR":"0.00003526200000","MEAN_MOTION_DDOT":"0.0000000000000","TLE_LINE1":"1 47661U 21012AT  22088.87081192  .00000244  00000-0  35262-4 0  9998","EPOCH":"2022-03-29T20:53:58.149888","PERIAPSIS":"545.967","REV_AT_EPOCH":"6308","REF_FRAME":"TEME","OBJECT_ID":"2021-012AT","TLE_LINE2":"2 47661  53.0558  39.7018 0001823  63.1165 297.0010 15.06394892 63089","ELEMENT_SET_NO":"999","ARG_OF_PERICENTER":"63.1165","SEMIMAJOR_AXIS":"6925.364","CLASSIFICATION_TYPE":"U","CENTER_NAME":"EARTH","RCS_SIZE":"LARGE","SITE":"AFETR","GP_ID":"200019536","RA_OF_ASC_NODE":"39.7018","DECAY_DATE":null,"INCLINATION":"53.0558","ECCENTRICITY":"0.00018230","LAUNCH_DATE":"2021-02-16","PERIOD":"95.592","MEAN_MOTION":"15.06394892","MEAN_ANOMALY":"297.0010","FILE":"3379484","MEAN_ELEMENT_THEORY":"SGP4","OBJECT_TYPE":"PAYLOAD","OBJECT_NAME":"STARLINK-2051","COUNTRY_CODE":"US","EPHEMERIS_TYPE":"0","TIME_SYSTEM":"UTC","APOAPSIS":"548.492","NORAD_CAT_ID":"47661"},{"MEAN_MOTION_DOT":"-0.00000092","EPOCH":"2022-03-29T20:26:03.716160","TLE_LINE1":"1 47662U 21012AU  22088.85143190 -.00000092  00000-0  12701-4 0  9999","BSTAR":"0.00001270100000","MEAN_MOTION_DDOT":"0.0000000000000","OBJECT_ID":"2021-012AU","REF_FRAME":"TEME","REV_AT_EPOCH":"6310","PERIAPSIS":"545.982","SEMIMAJOR_AXIS":"6925.357","ARG_OF_PERICENTER":"55.5596","ELEMENT_SET_NO":"999","TLE_LINE2":"2 47662  53.0561  39.7954 0001790  55.5596 304.5562 15.06397286 63108","RA_OF_ASC_NODE":"39.7954","GP_ID":"200020288","SITE":"AFETR","RCS_SIZE":"LARGE","CENTER_NAME":"EARTH","CLASSIFICATION_TYPE":"U","MEAN_MOTION":"15.06397286","PERIOD":"95.592","LAUNCH_DATE":"2021-02-16","INCLINATION":"53.0561","ECCENTRICITY":"0.00017900","DECAY_DATE":null,"OBJECT_NAME":"STARLINK-2052","OBJECT_TYPE":"PAYLOAD","MEAN_ELEMENT_THEORY":"SGP4","FILE":"3379484","MEAN_ANOMALY":"304.5562","NORAD_CAT_ID":"47662","APOAPSIS":"548.462","TIME_SYSTEM":"UTC","EPHEMERIS_TYPE":"0","COUNTRY_CODE":"US"},{"MEAN_MOTION_DOT":"-0.00001252","EPOCH":"2022-03-29T22:00:00.999936","TLE_LINE1":"1 47663U 21012AV  22088.91667824 -.00001252  00000-0 -65207-4 0  9991","BSTAR":"-0.00006520700000","MEAN_MOTION_DDOT":"0.0000000000000","OBJECT_ID":"2021-012AV","REF_FRAME":"TEME","REV_AT_EPOCH":"360","PERIAPSIS":"546.017","SEMIMAJOR_AXIS":"6925.394","ARG_OF_PERICENTER":"58.5959","ELEMENT_SET_NO":"999","TLE_LINE2":"2 47663  53.0524 319.5119 0001793  58.5959 115.4930 15.06385153  3606","RA_OF_ASC_NODE":"319.5119","GP_ID":"200020536","RCS_SIZE":"LARGE","SITE":"AFETR","CENTER_NAME":"EARTH","CLASSIFICATION_TYPE":"U","MEAN_MOTION":"15.06385153","PERIOD":"95.593","LAUNCH_DATE":"2021-02-16","INCLINATION":"53.0524","ECCENTRICITY":"0.00017930","DECAY_DATE":null,"OBJECT_NAME":"STARLINK-2053","OBJECT_TYPE":"PAYLOAD","MEAN_ELEMENT_THEORY":"SGP4","FILE":"3379484","MEAN_ANOMALY":"115.4930","NORAD_CAT_ID":"47663","APOAPSIS":"548.501","TIME_SYSTEM":"UTC","EPHEMERIS_TYPE":"0","COUNTRY_CODE":"US"},{"COUNTRY_CODE":"US","EPHEMERIS_TYPE":"0","TIME_SYSTEM":"UTC","NORAD_CAT_ID":"47664","APOAPSIS":"548.220","MEAN_ANOMALY":"301.1256","FILE":"3379484","MEAN_ELEMENT_THEORY":"SGP4","OBJECT_TYPE":"PAYLOAD","OBJECT_NAME":"STARLINK-2054","DECAY_DATE":null,"INCLINATION":"53.0552","ECCENTRICITY":"0.00015080","LAUNCH_DATE":"2021-02-16","PERIOD":"95.591","MEAN_MOTION":"15.06412354","CLASSIFICATION_TYPE":"U","CENTER_NAME":"EARTH","RCS_SIZE":"LARGE","SITE":"AFETR","GP_ID":"200018787","RA_OF_ASC_NODE":"39.7937","TLE_LINE2":"2 47664  53.0552  39.7937 0001508  58.9880 301.1256 15.06412354 63108","ELEMENT_SET_NO":"999","ARG_OF_PERICENTER":"58.9880","SEMIMAJOR_AXIS":"6925.311","PERIAPSIS":"546.131","REV_AT_EPOCH":"6310","REF_FRAME":"TEME","OBJECT_ID":"2021-012AW","BSTAR":"0.00023483000000","MEAN_MOTION_DDOT":"0.0000000000000","TLE_LINE1":"1 47664U 21012AW  22088.85236434  .00003219  00000-0  23483-3 0  9996","EPOCH":"2022-03-29T20:27:24.278976","MEAN_MOTION_DOT":"0.00003219"},{"OBJECT_TYPE":"PAYLOAD","OBJECT_NAME":"STARLINK-2056","MEAN_ANOMALY":"273.9945","MEAN_ELEMENT_THEORY":"SGP4","FILE":"3379484","APOAPSIS":"548.197","NORAD_CAT_ID":"47665","TIME_SYSTEM":"UTC","COUNTRY_CODE":"US","EPHEMERIS_TYPE":"0","RA_OF_ASC_NODE":"34.5951","GP_ID":"200019037","CENTER_NAME":"EARTH","CLASSIFICATION_TYPE":"U","RCS_SIZE":"LARGE","SITE":"AFETR","MEAN_MOTION":"15.06384512","PERIOD":"95.593","INCLINATION":"53.0567","ECCENTRICITY":"0.00013510","DECAY_DATE":null,"LAUNCH_DATE":"2021-02-16","OBJECT_ID":"2021-012AX","PERIAPSIS":"546.325","REF_FRAME":"TEME","REV_AT_EPOCH":"6317","SEMIMAJOR_AXIS":"6925.396","ELEMENT_SET_NO":"999","TLE_LINE2":"2 47665  53.0567  34.5951 0001351  86.1198 273.9945 15.06384512 63177","ARG_OF_PERICENTER":"86.1198","MEAN_MOTION_DOT":"-0.00001344","TLE_LINE1":"1 47665U 21012AX  22088.89429547 -.00001344  00000-0 -71372-4 0  9990","EPOCH":"2022-03-29T21:27:47.128608","BSTAR":"-0.00007137200000","MEAN_MOTION_DDOT":"0.0000000000000"},{"BSTAR":"-0.00007522500000","MEAN_MOTION_DDOT":"0.0000000000000","TLE_LINE1":"1 47666U 21012AY  22088.86112184 -.00001401  00000-0 -75225-4 0  9999","EPOCH":"2022-03-29T20:40:00.926976","MEAN_MOTION_DOT":"-0.00001401","TLE_LINE2":"2 47666  53.0569  34.7558 0001595  59.6498 300.4649 15.06386301 63178","ELEMENT_SET_NO":"999","ARG_OF_PERICENTER":"59.6498","SEMIMAJOR_AXIS":"6925.391","PERIAPSIS":"546.151","REV_AT_EPOCH":"6317","REF_FRAME":"TEME","OBJECT_ID":"2021-012AY","DECAY_DATE":null,"INCLINATION":"53.0569","ECCENTRICITY":"0.00015950","LAUNCH_DATE":"2021-02-16","PERIOD":"95.593","MEAN_MOTION":"15.06386301","CLASSIFICATION_TYPE":"U","CENTER_NAME":"EARTH","SITE":"AFETR","RCS_SIZE":"LARGE","GP_ID":"200019789","RA_OF_ASC_NODE":"34.7558","COUNTRY_CODE":"US","EPHEMERIS_TYPE":"0","TIME_SYSTEM":"UTC","NORAD_CAT_ID":"47666","APOAPSIS":"548.360","MEAN_ANOMALY":"300.4649","FILE":"3379484","MEAN_ELEMENT_THEORY":"SGP4","OBJECT_TYPE":"PAYLOAD","OBJECT_NAME":"STARLINK-2057"},{"EPOCH":"2022-03-29T10:03:45.122400","TLE_LINE1":"1 47667U 21012AZ  22088.41927225 -.00002005  00000-0 -11568-3 0  9991","BSTAR":"-0.00011568000000","MEAN_MOTION_DDOT":"0.0000000000000","MEAN_MOTION_DOT":"-0.00002005","SEMIMAJOR_AXIS":"6925.302","ARG_OF_PERICENTER":"51.6328","TLE_LINE2":"2 47667  53.0561  61.7413 0001794  51.6328 308.4822 15.06415354 62234","ELEMENT_SET_NO":"999","OBJECT_ID":"2021-012AZ","REV_AT_EPOCH":"6223","REF_FRAME":"TEME","PERIAPSIS":"545.924","PERIOD":"95.591","MEAN_MOTION":"15.06415354","LAUNCH_DATE":"2021-02-16","DECAY_DATE":null,"INCLINATION":"53.0561","ECCENTRICITY":"0.00017940","GP_ID":"199960126","RA_OF_ASC_NODE":"61.7413","RCS_SIZE":"LARGE","SITE":"AFETR","CLASSIFICATION_TYPE":"U","CENTER_NAME":"EARTH","TIME_SYSTEM":"UTC","APOAPSIS":"548.409","NORAD_CAT_ID":"47667","EPHEMERIS_TYPE":"0","COUNTRY_CODE":"US","OBJECT_NAME":"STARLINK-2058","OBJECT_TYPE":"PAYLOAD","FILE":"3378923","MEAN_ELEMENT_THEORY":"SGP4","MEAN_ANOMALY":"308.4822"},{"RCS_SIZE":"LARGE","SITE":"AFETR","CLASSIFICATION_TYPE":"U","CENTER_NAME":"EARTH","RA_OF_ASC_NODE":"39.7541","GP_ID":"200019287","LAUNCH_DATE":"2021-02-16","ECCENTRICITY":"0.00019010","INCLINATION":"53.0554","DECAY_DATE":null,"MEAN_MOTION":"15.06410896","PERIOD":"95.591","MEAN_ELEMENT_THEORY":"SGP4","FILE":"3379484","MEAN_ANOMALY":"299.5875","OBJECT_NAME":"STARLINK-2059","OBJECT_TYPE":"PAYLOAD","EPHEMERIS_TYPE":"0","COUNTRY_CODE":"US","NORAD_CAT_ID":"47668","APOAPSIS":"548.497","TIME_SYSTEM":"UTC","MEAN_MOTION_DOT":"-0.00001473","BSTAR":"-0.00008000000000","MEAN_MOTION_DDOT":"0.0000000000000","EPOCH":"2022-03-29T20:38:02.201280","TLE_LINE1":"1 47668U 21012BA  22088.85974770 -.00001473  00000-0 -80000-4 0  9993","REF_FRAME":"TEME","REV_AT_EPOCH":"6310","PERIAPSIS":"545.864","OBJECT_ID":"2021-012BA","ARG_OF_PERICENTER":"60.5304","ELEMENT_SET_NO":"999","TLE_LINE2":"2 47668  53.0554  39.7541 0001901  60.5304 299.5875 15.06410896 63108","SEMIMAJOR_AXIS":"6925.315"},{"MEAN_MOTION_DOT":"0.00000695","TLE_LINE1":"1 47669U 21012BB  22088.91667824  .00000695  00000-0  65613-4 0  9996","EPOCH":"2022-03-29T22:00:00.999936","BSTAR":"0.00006561300000","MEAN_MOTION_DDOT":"0.0000000000000","OBJECT_ID":"2021-012BB","PERIAPSIS":"546.147","REF_FRAME":"TEME","REV_AT_EPOCH":"359","SEMIMAJOR_AXIS":"6925.431","ELEMENT_SET_NO":"999","TLE_LINE2":"2 47669  53.0558 324.5064 0001659  65.6029 241.0354 15.06372990  3591","ARG_OF_PERICENTER":"65.6029","RA_OF_ASC_NODE":"324.5064","GP_ID":"200019537","CENTER_NAME":"EARTH","CLASSIFICATION_TYPE":"U","SITE":"AFETR","RCS_SIZE":"LARGE","MEAN_MOTION":"15.06372990","PERIOD":"95.594","INCLINATION":"53.0558","ECCENTRICITY":"0.00016590","DECAY_DATE":null,"LAUNCH_DATE":"2021-02-16","OBJECT_TYPE":"PAYLOAD","OBJECT_NAME":"STARLINK-2060","MEAN_ANOMALY":"241.0354","MEAN_ELEMENT_THEORY":"SGP4","FILE":"3379484","NORAD_CAT_ID":"47669","APOAPSIS":"548.445","TIME_SYSTEM":"UTC","COUNTRY_CODE":"US","EPHEMERIS_TYPE":"0"}];
